{
  "type": "FeatureCollection",
  "features": [
    {
      "type": "Feature",
      "properties": {
        "norad_id": 33376,
        "name": "GALAXY 19 (G-19)",
        "group": "intelsat",
        "lat": -0.006392163289491587,
        "lon": 166.18922669775654,
        "alt_km": 35789.786590146614,
        "timestamp": "2025-12-21T11:31:42.509992+00:00",
        "meta_object_name": "GALAXY 19 (G-19)",
        "meta_object_id": "2008-045A",
        "meta_epoch": "2025-12-21T04:16:38.932032",
        "meta_mean_motion": 1.00271333,
        "meta_eccentricity": 0.000253,
        "meta_inclination": 0.0166,
        "meta_ra_of_asc_node": 317.4489,
        "meta_arg_of_pericenter": 318.2246,
        "meta_mean_anomaly": 141.4895,
        "meta_ephemeris_type": 0,
        "meta_classification_type": "U",
        "meta_norad_cat_id": 33376,
        "meta_element_set_no": 999,
        "meta_rev_at_epoch": 6311,
        "meta_bstar": 0,
        "meta_mean_motion_dot": -1.16e-06,
        "meta_mean_motion_ddot": 0,
        "tle_line1": "1 33376U 08045A   25355.17822838 -.00000116  00000+0  00000+0 0  9995",
        "tle_line2": "2 33376   0.0166 317.4489 0002530 318.2246 141.4895  1.00271333 63112"
      },
      "geometry": {
        "type": "Point",
        "coordinates": [
          166.18922669775654,
          -0.006392163289491587
        ]
      }
    },
    {
      "type": "Feature",
      "properties": {
        "norad_id": 35493,
        "name": "FM-5",
        "group": "intelsat",
        "lat": -0.017178765492752227,
        "lon": 177.08491405136337,
        "alt_km": 35781.81039241854,
        "timestamp": "2025-12-21T11:31:42.510005+00:00",
        "meta_object_name": "FM-5",
        "meta_object_id": "2009-034A",
        "meta_epoch": "2025-12-20T21:22:50.190816",
        "meta_mean_motion": 1.00271574,
        "meta_eccentricity": 0.0001114,
        "meta_inclination": 0.0228,
        "meta_ra_of_asc_node": 291.0132,
        "meta_arg_of_pericenter": 225.4052,
        "meta_mean_anomaly": 167.8719,
        "meta_ephemeris_type": 0,
        "meta_classification_type": "U",
        "meta_norad_cat_id": 35493,
        "meta_element_set_no": 999,
        "meta_rev_at_epoch": 4485,
        "meta_bstar": 0,
        "meta_mean_motion_dot": -1.77e-06,
        "meta_mean_motion_ddot": 0,
        "tle_line1": "1 35493U 09034A   25354.89085869 -.00000177  00000+0  00000+0 0  9996",
        "tle_line2": "2 35493   0.0228 291.0132 0001114 225.4052 167.8719  1.00271574 44850"
      },
      "geometry": {
        "type": "Point",
        "coordinates": [
          177.08491405136337,
          -0.017178765492752227
        ]
      }
    },
    {
      "type": "Feature",
      "properties": {
        "norad_id": 36097,
        "name": "INTELSAT 14 (IS-14)",
        "group": "intelsat",
        "lat": -0.019104343522014514,
        "lon": -141.80101768302305,
        "alt_km": 35781.72916223242,
        "timestamp": "2025-12-21T11:31:42.510017+00:00",
        "meta_object_name": "INTELSAT 14 (IS-14)",
        "meta_object_id": "2009-064A",
        "meta_epoch": "2025-12-21T02:42:46.903104",
        "meta_mean_motion": 1.00270657,
        "meta_eccentricity": 0.000247,
        "meta_inclination": 0.0104,
        "meta_ra_of_asc_node": 12.0251,
        "meta_arg_of_pericenter": 269.5319,
        "meta_mean_anomaly": 164.0836,
        "meta_ephemeris_type": 0,
        "meta_classification_type": "U",
        "meta_norad_cat_id": 36097,
        "meta_element_set_no": 999,
        "meta_rev_at_epoch": 5882,
        "meta_bstar": 0,
        "meta_mean_motion_dot": -2.5e-06,
        "meta_mean_motion_ddot": 0,
        "tle_line1": "1 36097U 09064A   25355.11304286 -.00000250  00000+0  00000+0 0  9995",
        "tle_line2": "2 36097   0.0104  12.0251 0002470 269.5319 164.0836  1.00270657 58820"
      },
      "geometry": {
        "type": "Point",
        "coordinates": [
          -141.80101768302305,
          -0.019104343522014514
        ]
      }
    },
    {
      "type": "Feature",
      "properties": {
        "norad_id": 36106,
        "name": "INTELSAT 15 (IS-15)",
        "group": "intelsat",
        "lat": -0.001284188068378455,
        "lon": -11.59696884640285,
        "alt_km": 35782.543164614006,
        "timestamp": "2025-12-21T11:31:42.510030+00:00",
        "meta_object_name": "INTELSAT 15 (IS-15)",
        "meta_object_id": "2009-067A",
        "meta_epoch": "2025-12-20T23:54:28.167840",
        "meta_mean_motion": 1.00271811,
        "meta_eccentricity": 0.0002162,
        "meta_inclination": 0.0161,
        "meta_ra_of_asc_node": 343.3578,
        "meta_arg_of_pericenter": 298.0159,
        "meta_mean_anomaly": 252.2279,
        "meta_ephemeris_type": 0,
        "meta_classification_type": "U",
        "meta_norad_cat_id": 36106,
        "meta_element_set_no": 999,
        "meta_rev_at_epoch": 3944,
        "meta_bstar": 0,
        "meta_mean_motion_dot": -1.62e-06,
        "meta_mean_motion_ddot": 0,
        "tle_line1": "1 36106U 09067A   25354.99615935 -.00000162  00000+0  00000+0 0  9992",
        "tle_line2": "2 36106   0.0161 343.3578 0002162 298.0159 252.2279  1.00271811 39444"
      },
      "geometry": {
        "type": "Point",
        "coordinates": [
          -11.59696884640285,
          -0.001284188068378455
        ]
      }
    },
    {
      "type": "Feature",
      "properties": {
        "norad_id": 36131,
        "name": "DIRECTV 12",
        "group": "intelsat",
        "lat": 0.010728007407938712,
        "lon": 160.5033680195077,
        "alt_km": 35787.79926606487,
        "timestamp": "2025-12-21T11:31:42.510043+00:00",
        "meta_object_name": "DIRECTV 12",
        "meta_object_id": "2009-075A",
        "meta_epoch": "2025-12-20T21:18:05.647104",
        "meta_mean_motion": 1.00270531,
        "meta_eccentricity": 3.37e-05,
        "meta_inclination": 0.0166,
        "meta_ra_of_asc_node": 99.1337,
        "meta_arg_of_pericenter": 257.3135,
        "meta_mean_anomaly": 310.0782,
        "meta_ephemeris_type": 0,
        "meta_classification_type": "U",
        "meta_norad_cat_id": 36131,
        "meta_element_set_no": 999,
        "meta_rev_at_epoch": 4476,
        "meta_bstar": 0,
        "meta_mean_motion_dot": -8e-07,
        "meta_mean_motion_ddot": 0,
        "tle_line1": "1 36131U 09075A   25354.88756536 -.00000080  00000+0  00000+0 0  9999",
        "tle_line2": "2 36131   0.0166  99.1337 0000337 257.3135 310.0782  1.00270531 44761"
      },
      "geometry": {
        "type": "Point",
        "coordinates": [
          160.5033680195077,
          0.010728007407938712
        ]
      }
    },
    {
      "type": "Feature",
      "properties": {
        "norad_id": 36397,
        "name": "INTELSAT 16 (IS-16)",
        "group": "intelsat",
        "lat": -0.007482928083822593,
        "lon": -172.99384898426132,
        "alt_km": 35785.47561170138,
        "timestamp": "2025-12-21T11:31:42.510055+00:00",
        "meta_object_name": "INTELSAT 16 (IS-16)",
        "meta_object_id": "2010-006A",
        "meta_epoch": "2025-12-21T04:54:20.160000",
        "meta_mean_motion": 1.00271302,
        "meta_eccentricity": 0.0001826,
        "meta_inclination": 0.0117,
        "meta_ra_of_asc_node": 352.2882,
        "meta_arg_of_pericenter": 279.0233,
        "meta_mean_anomaly": 176.1095,
        "meta_ephemeris_type": 0,
        "meta_classification_type": "U",
        "meta_norad_cat_id": 36397,
        "meta_element_set_no": 999,
        "meta_rev_at_epoch": 5787,
        "meta_bstar": 0,
        "meta_mean_motion_dot": -2.22e-06,
        "meta_mean_motion_ddot": 0,
        "tle_line1": "1 36397U 10006A   25355.20440000 -.00000222  00000+0  00000+0 0  9990",
        "tle_line2": "2 36397   0.0117 352.2882 0001826 279.0233 176.1095  1.00271302 57874"
      },
      "geometry": {
        "type": "Point",
        "coordinates": [
          -172.99384898426132,
          -0.007482928083822593
        ]
      }
    },
    {
      "type": "Feature",
      "properties": {
        "norad_id": 37185,
        "name": "XM-5",
        "group": "intelsat",
        "lat": -0.03665388633471399,
        "lon": 148.02311270527454,
        "alt_km": 35777.33406545895,
        "timestamp": "2025-12-21T11:31:42.510068+00:00",
        "meta_object_name": "XM-5",
        "meta_object_id": "2010-053A",
        "meta_epoch": "2025-12-20T21:14:35.981088",
        "meta_mean_motion": 1.00269291,
        "meta_eccentricity": 0.0002244,
        "meta_inclination": 0.0661,
        "meta_ra_of_asc_node": 270.9496,
        "meta_arg_of_pericenter": 238.8649,
        "meta_mean_anomaly": 143.3591,
        "meta_ephemeris_type": 0,
        "meta_classification_type": "U",
        "meta_norad_cat_id": 37185,
        "meta_element_set_no": 999,
        "meta_rev_at_epoch": 5569,
        "meta_bstar": 0,
        "meta_mean_motion_dot": 0,
        "meta_mean_motion_ddot": 0,
        "tle_line1": "1 37185U 10053A   25354.88513867  .00000000  00000+0  00000+0 0  9996",
        "tle_line2": "2 37185   0.0661 270.9496 0002244 238.8649 143.3591  1.00269291 55699"
      },
      "geometry": {
        "type": "Point",
        "coordinates": [
          148.02311270527454,
          -0.03665388633471399
        ]
      }
    }
  ]
}